{"fetched_at":"2026-07-13T18:16:33.418Z","source":"https://celestrak.org/NORAD/elements/gp.php?GROUP=planet&FORMAT=JSON","constellation":"superdove","records":[{"OBJECT_NAME":"FLOCK 4G-23","OBJECT_ID":"2025-009AQ","EPOCH":"2026-07-12T18:00:40.258080","CLASSIFICATION_TYPE":"U","MEAN_MOTION":15.34642772,"ECCENTRICITY":0.00030936,"INCLINATION":97.3926,"RA_OF_ASC_NODE":275.4335,"ARG_OF_PERICENTER":177.8892,"MEAN_ANOMALY":182.2364,"EPHEMERIS_TYPE":0,"NORAD_CAT_ID":62647,"ELEMENT_SET_NO":999,"REV_AT_EPOCH":8284,"BSTAR":0.0010152059,"MEAN_MOTION_DOT":0.00034117,"MEAN_MOTION_DDOT":0},{"OBJECT_NAME":"FLOCK 4G-34","OBJECT_ID":"2025-009AT","EPOCH":"2026-07-13T03:55:53.888160","CLASSIFICATION_TYPE":"U","MEAN_MOTION":15.29751359,"ECCENTRICITY":0.00021772,"INCLINATION":97.3967,"RA_OF_ASC_NODE":275.6233,"ARG_OF_PERICENTER":167.8874,"MEAN_ANOMALY":192.2419,"EPHEMERIS_TYPE":0,"NORAD_CAT_ID":62650,"ELEMENT_SET_NO":999,"REV_AT_EPOCH":8288,"BSTAR":0.00023174492,"MEAN_MOTION_DOT":0.00006603,"MEAN_MOTION_DDOT":0},{"OBJECT_NAME":"FLOCK 4G-21","OBJECT_ID":"2025-009AU","EPOCH":"2026-07-12T18:15:13.198752","CLASSIFICATION_TYPE":"U","MEAN_MOTION":15.32763589,"ECCENTRICITY":0.00029518,"INCLINATION":97.3994,"RA_OF_ASC_NODE":276.2129,"ARG_OF_PERICENTER":197.3434,"MEAN_ANOMALY":162.7708,"EPHEMERIS_TYPE":0,"NORAD_CAT_ID":62651,"ELEMENT_SET_NO":999,"REV_AT_EPOCH":8287,"BSTAR":0.00091121534,"MEAN_MOTION_DOT":0.00028833,"MEAN_MOTION_DDOT":0},{"OBJECT_NAME":"FLOCK 4G-31","OBJECT_ID":"2025-009AV","EPOCH":"2026-07-12T16:04:56.319456","CLASSIFICATION_TYPE":"U","MEAN_MOTION":15.29548421,"ECCENTRICITY":0.00016495,"INCLINATION":97.3971,"RA_OF_ASC_NODE":275.1044,"ARG_OF_PERICENTER":162.3844,"MEAN_ANOMALY":197.7453,"EPHEMERIS_TYPE":0,"NORAD_CAT_ID":62652,"ELEMENT_SET_NO":999,"REV_AT_EPOCH":8280,"BSTAR":0.00022232134,"MEAN_MOTION_DOT":0.00006291,"MEAN_MOTION_DDOT":0},{"OBJECT_NAME":"FLOCK 4G-4","OBJECT_ID":"2025-009BC","EPOCH":"2026-07-12T18:39:23.773536","CLASSIFICATION_TYPE":"U","MEAN_MOTION":15.32041929,"ECCENTRICITY":0.00044451,"INCLINATION":97.3953,"RA_OF_ASC_NODE":275.0147,"ARG_OF_PERICENTER":199.7728,"MEAN_ANOMALY":160.3342,"EPHEMERIS_TYPE":0,"NORAD_CAT_ID":62659,"ELEMENT_SET_NO":999,"REV_AT_EPOCH":14042,"BSTAR":0.00091888614,"MEAN_MOTION_DOT":0.0002843,"MEAN_MOTION_DDOT":0},{"OBJECT_NAME":"FLOCK 4G-6","OBJECT_ID":"2025-009BD","EPOCH":"2026-07-12T18:58:39.130752","CLASSIFICATION_TYPE":"U","MEAN_MOTION":15.29952265,"ECCENTRICITY":0.00026649,"INCLINATION":97.3947,"RA_OF_ASC_NODE":275.0759,"ARG_OF_PERICENTER":210.8225,"MEAN_ANOMALY":149.2859,"EPHEMERIS_TYPE":0,"NORAD_CAT_ID":62660,"ELEMENT_SET_NO":999,"REV_AT_EPOCH":14041,"BSTAR":0.00024233015,"MEAN_MOTION_DOT":0.00006951,"MEAN_MOTION_DDOT":0},{"OBJECT_NAME":"FLOCK 4G-2","OBJECT_ID":"2025-009BE","EPOCH":"2026-07-12T18:50:13.486848","CLASSIFICATION_TYPE":"U","MEAN_MOTION":15.30300301,"ECCENTRICITY":0.00034858,"INCLINATION":97.4014,"RA_OF_ASC_NODE":275.7085,"ARG_OF_PERICENTER":211.5166,"MEAN_ANOMALY":148.5867,"EPHEMERIS_TYPE":0,"NORAD_CAT_ID":62661,"ELEMENT_SET_NO":999,"REV_AT_EPOCH":14044,"BSTAR":0.00026790613,"MEAN_MOTION_DOT":0.00007777,"MEAN_MOTION_DDOT":0},{"OBJECT_NAME":"FLOCK 4G-5","OBJECT_ID":"2025-009BG","EPOCH":"2026-07-12T18:44:12.766848","CLASSIFICATION_TYPE":"U","MEAN_MOTION":15.30881733,"ECCENTRICITY":0.0003232,"INCLINATION":97.403,"RA_OF_ASC_NODE":276.1016,"ARG_OF_PERICENTER":189.2168,"MEAN_ANOMALY":170.9014,"EPHEMERIS_TYPE":0,"NORAD_CAT_ID":62663,"ELEMENT_SET_NO":999,"REV_AT_EPOCH":8285,"BSTAR":0.0002198482,"MEAN_MOTION_DOT":0.00006484,"MEAN_MOTION_DDOT":0},{"OBJECT_NAME":"FLOCK 4G-1","OBJECT_ID":"2025-009BK","EPOCH":"2026-07-13T03:53:09.592512","CLASSIFICATION_TYPE":"U","MEAN_MOTION":15.30163691,"ECCENTRICITY":0.00038152,"INCLINATION":97.4027,"RA_OF_ASC_NODE":276.0632,"ARG_OF_PERICENTER":206.157,"MEAN_ANOMALY":153.9479,"EPHEMERIS_TYPE":0,"NORAD_CAT_ID":62666,"ELEMENT_SET_NO":999,"REV_AT_EPOCH":8288,"BSTAR":0.00022828454,"MEAN_MOTION_DOT":0.00006587,"MEAN_MOTION_DDOT":0},{"OBJECT_NAME":"FLOCK 4G-14","OBJECT_ID":"2025-009BL","EPOCH":"2026-07-12T17:37:42.734496","CLASSIFICATION_TYPE":"U","MEAN_MOTION":15.29703778,"ECCENTRICITY":0.00039092,"INCLINATION":97.403,"RA_OF_ASC_NODE":275.4355,"ARG_OF_PERICENTER":202.9881,"MEAN_ANOMALY":157.1185,"EPHEMERIS_TYPE":0,"NORAD_CAT_ID":62667,"ELEMENT_SET_NO":999,"REV_AT_EPOCH":8280,"BSTAR":0.00022999052,"MEAN_MOTION_DOT":0.00006543,"MEAN_MOTION_DDOT":0},{"OBJECT_NAME":"FLOCK 4G-10","OBJECT_ID":"2025-009BP","EPOCH":"2026-07-12T19:27:51.305472","CLASSIFICATION_TYPE":"U","MEAN_MOTION":15.29807775,"ECCENTRICITY":0.000345,"INCLINATION":97.3927,"RA_OF_ASC_NODE":274.8122,"ARG_OF_PERICENTER":222.7577,"MEAN_ANOMALY":137.3396,"EPHEMERIS_TYPE":0,"NORAD_CAT_ID":62670,"ELEMENT_SET_NO":999,"REV_AT_EPOCH":14045,"BSTAR":0.00026065972,"MEAN_MOTION_DOT":0.0000745,"MEAN_MOTION_DDOT":0},{"OBJECT_NAME":"FLOCK 4G-36","OBJECT_ID":"2025-009BU","EPOCH":"2026-07-12T19:19:54.731712","CLASSIFICATION_TYPE":"U","MEAN_MOTION":15.29780125,"ECCENTRICITY":0.00040482,"INCLINATION":97.402,"RA_OF_ASC_NODE":275.4274,"ARG_OF_PERICENTER":208.9659,"MEAN_ANOMALY":151.1358,"EPHEMERIS_TYPE":0,"NORAD_CAT_ID":62675,"ELEMENT_SET_NO":999,"REV_AT_EPOCH":8281,"BSTAR":0.00026234903,"MEAN_MOTION_DOT":0.00007493,"MEAN_MOTION_DDOT":0},{"OBJECT_NAME":"FLOCK 4G-15","OBJECT_ID":"2025-009BX","EPOCH":"2026-07-13T04:55:12.970272","CLASSIFICATION_TYPE":"U","MEAN_MOTION":15.29874531,"ECCENTRICITY":0.00043505,"INCLINATION":97.4019,"RA_OF_ASC_NODE":275.9683,"ARG_OF_PERICENTER":204.3706,"MEAN_ANOMALY":155.733,"EPHEMERIS_TYPE":0,"NORAD_CAT_ID":62678,"ELEMENT_SET_NO":999,"REV_AT_EPOCH":14052,"BSTAR":0.0002261634,"MEAN_MOTION_DOT":0.00006467,"MEAN_MOTION_DDOT":0},{"OBJECT_NAME":"FLOCK 4G-30","OBJECT_ID":"2025-009BY","EPOCH":"2026-07-13T03:41:08.800512","CLASSIFICATION_TYPE":"U","MEAN_MOTION":15.33856701,"ECCENTRICITY":0.00041221,"INCLINATION":97.3919,"RA_OF_ASC_NODE":275.4304,"ARG_OF_PERICENTER":202.4861,"MEAN_ANOMALY":157.6202,"EPHEMERIS_TYPE":0,"NORAD_CAT_ID":62679,"ELEMENT_SET_NO":999,"REV_AT_EPOCH":14052,"BSTAR":0.00091686026,"MEAN_MOTION_DOT":0.00030035,"MEAN_MOTION_DDOT":0},{"OBJECT_NAME":"FLOCK 4G-18","OBJECT_ID":"2025-009BZ","EPOCH":"2026-07-13T03:58:31.687392","CLASSIFICATION_TYPE":"U","MEAN_MOTION":15.32114865,"ECCENTRICITY":0.00059684,"INCLINATION":97.4015,"RA_OF_ASC_NODE":275.8404,"ARG_OF_PERICENTER":218.1123,"MEAN_ANOMALY":141.9697,"EPHEMERIS_TYPE":0,"NORAD_CAT_ID":62680,"ELEMENT_SET_NO":999,"REV_AT_EPOCH":14051,"BSTAR":0.00075793256,"MEAN_MOTION_DOT":0.00023481,"MEAN_MOTION_DDOT":0},{"OBJECT_NAME":"FLOCK 4G-17","OBJECT_ID":"2025-009CA","EPOCH":"2026-07-13T00:51:01.920096","CLASSIFICATION_TYPE":"U","MEAN_MOTION":15.30057115,"ECCENTRICITY":0.00038301,"INCLINATION":97.3927,"RA_OF_ASC_NODE":275.2721,"ARG_OF_PERICENTER":222.715,"MEAN_ANOMALY":137.3794,"EPHEMERIS_TYPE":0,"NORAD_CAT_ID":62681,"ELEMENT_SET_NO":999,"REV_AT_EPOCH":14050,"BSTAR":0.00027058772,"MEAN_MOTION_DOT":0.00007797,"MEAN_MOTION_DDOT":0}]}
